[
  {
    "OBJECT_NAME": "STARLINK-1166",
    "OBJECT_ID": "20006S",
    "EPOCH": "2025-11-11T03:07:22.580544",
    "MEAN_MOTION": 15.06412472,
    "ECCENTRICITY": 0.0001862,
    "INCLINATION": 53.0539,
    "RA_OF_ASC_NODE": 98.8526,
    "ARG_OF_PERICENTER": 98.1485,
    "MEAN_ANOMALY": 261.9715,
    "EPHEMERIS_TYPE": 0,
    "CLASSIFICATION_TYPE": "U",
    "NORAD_CAT_ID": 45060,
    "ELEMENT_SET_NO": 999,
    "REV_AT_EPOCH": 31859,
    "BSTAR": 0.00032812000000000005,
    "MEAN_MOTION_DOT": 4.611e-05,
    "MEAN_MOTION_DDOT": 0.0,
    "TLE_LINE1": "1 45060U 20006S   25315.13012246  .00004611  00000+0  32812-3 0  9998",
    "TLE_LINE2": "2 45060  53.0539  98.8526 0001862  98.1485 261.9715 15.06412472318591",
    "COMMENT": "Grouped by shell and plane from TLE"
  },
  {
    "OBJECT_NAME": "STARLINK-2326",
    "OBJECT_ID": "21021L",
    "EPOCH": "2025-11-11T02:19:36.626016",
    "MEAN_MOTION": 15.06396534,
    "ECCENTRICITY": 0.0001753,
    "INCLINATION": 53.0524,
    "RA_OF_ASC_NODE": 99.0013,
    "ARG_OF_PERICENTER": 88.575,
    "MEAN_ANOMALY": 271.544,
    "EPHEMERIS_TYPE": 0,
    "CLASSIFICATION_TYPE": "U",
    "NORAD_CAT_ID": 47870,
    "ELEMENT_SET_NO": 999,
    "REV_AT_EPOCH": 25800,
    "BSTAR": 8.8843e-06,
    "MEAN_MOTION_DOT": -1.49e-06,
    "MEAN_MOTION_DDOT": 0.0,
    "TLE_LINE1": "1 47870U 21021L   25315.09695169 -.00000149  00000+0  88843-5 0  9993",
    "TLE_LINE2": "2 47870  53.0524  99.0013 0001753  88.5750 271.5440 15.06396534258008",
    "COMMENT": "Grouped by shell and plane from TLE"
  },
  {
    "OBJECT_NAME": "STARLINK-2336",
    "OBJECT_ID": "21021V",
    "EPOCH": "2025-11-11T03:02:05.527104",
    "MEAN_MOTION": 15.06395712,
    "ECCENTRICITY": 0.0001456,
    "INCLINATION": 53.0541,
    "RA_OF_ASC_NODE": 98.8676,
    "ARG_OF_PERICENTER": 90.7945,
    "MEAN_ANOMALY": 269.3211,
    "EPHEMERIS_TYPE": 0,
    "CLASSIFICATION_TYPE": "U",
    "NORAD_CAT_ID": 47879,
    "ELEMENT_SET_NO": 999,
    "REV_AT_EPOCH": 25828,
    "BSTAR": 0.0004954,
    "MEAN_MOTION_DOT": 7.104e-05,
    "MEAN_MOTION_DDOT": 0.0,
    "TLE_LINE1": "1 47879U 21021V   25315.12645286  .00007104  00000+0  49540-3 0  9997",
    "TLE_LINE2": "2 47879  53.0541  98.8676 0001456  90.7945 269.3211 15.06395712258287",
    "COMMENT": "Grouped by shell and plane from TLE"
  },
  {
    "OBJECT_NAME": "STARLINK-2343",
    "OBJECT_ID": "21021AA",
    "EPOCH": "2025-11-11T02:54:46.508832",
    "MEAN_MOTION": 15.06398823,
    "ECCENTRICITY": 0.000148,
    "INCLINATION": 53.0524,
    "RA_OF_ASC_NODE": 93.8923,
    "ARG_OF_PERICENTER": 96.0183,
    "MEAN_ANOMALY": 264.0975,
    "EPHEMERIS_TYPE": 0,
    "CLASSIFICATION_TYPE": "U",
    "NORAD_CAT_ID": 47884,
    "ELEMENT_SET_NO": 999,
    "REV_AT_EPOCH": 25817,
    "BSTAR": 7.5578e-05,
    "MEAN_MOTION_DOT": 8.44e-06,
    "MEAN_MOTION_DDOT": 0.0,
    "TLE_LINE1": "1 47884U 21021AA  25315.12137163  .00000844  00000+0  75578-4 0  9998",
    "TLE_LINE2": "2 47884  53.0524  93.8923 0001480  96.0183 264.0975 15.06398823258177",
    "COMMENT": "Grouped by shell and plane from TLE"
  },
  {
    "OBJECT_NAME": "STARLINK-2346",
    "OBJECT_ID": "21021AD",
    "EPOCH": "2025-11-10T16:12:31.947264",
    "MEAN_MOTION": 15.06405913,
    "ECCENTRICITY": 0.0001301,
    "INCLINATION": 53.054,
    "RA_OF_ASC_NODE": 95.896,
    "ARG_OF_PERICENTER": 82.9332,
    "MEAN_ANOMALY": 277.1805,
    "EPHEMERIS_TYPE": 0,
    "CLASSIFICATION_TYPE": "U",
    "NORAD_CAT_ID": 47887,
    "ELEMENT_SET_NO": 999,
    "REV_AT_EPOCH": 25811,
    "BSTAR": 0.00019492,
    "MEAN_MOTION_DOT": 2.623e-05,
    "MEAN_MOTION_DDOT": 0.0,
    "TLE_LINE1": "1 47887U 21021AD  25314.67536976  .00002623  00000+0  19492-3 0  9994",
    "TLE_LINE2": "2 47887  53.0540  95.8960 0001301  82.9332 277.1805 15.06405913258113",
    "COMMENT": "Grouped by shell and plane from TLE"
  },
  {
    "OBJECT_NAME": "STARLINK-2356",
    "OBJECT_ID": "21021AN",
    "EPOCH": "2025-11-11T03:23:18.359808",
    "MEAN_MOTION": 15.06403318,
    "ECCENTRICITY": 0.00013,
    "INCLINATION": 53.0525,
    "RA_OF_ASC_NODE": 98.804,
    "ARG_OF_PERICENTER": 84.4669,
    "MEAN_ANOMALY": 275.6469,
    "EPHEMERIS_TYPE": 0,
    "CLASSIFICATION_TYPE": "U",
    "NORAD_CAT_ID": 47896,
    "ELEMENT_SET_NO": 999,
    "REV_AT_EPOCH": 25806,
    "BSTAR": 0.00015049,
    "MEAN_MOTION_DOT": 1.961e-05,
    "MEAN_MOTION_DDOT": 0.0,
    "TLE_LINE1": "1 47896U 21021AN  25315.14118472  .00001961  00000+0  15049-3 0  9992",
    "TLE_LINE2": "2 47896  53.0525  98.8040 0001300  84.4669 275.6469 15.06403318258067",
    "COMMENT": "Grouped by shell and plane from TLE"
  },
  {
    "OBJECT_NAME": "STARLINK-2367",
    "OBJECT_ID": "21021AZ",
    "EPOCH": "2025-11-10T19:18:17.705376",
    "MEAN_MOTION": 15.06397806,
    "ECCENTRICITY": 7.8e-05,
    "INCLINATION": 53.0555,
    "RA_OF_ASC_NODE": 95.3159,
    "ARG_OF_PERICENTER": 145.9948,
    "MEAN_ANOMALY": 214.1091,
    "EPHEMERIS_TYPE": 0,
    "CLASSIFICATION_TYPE": "U",
    "NORAD_CAT_ID": 47907,
    "ELEMENT_SET_NO": 999,
    "REV_AT_EPOCH": 25809,
    "BSTAR": 0.0,
    "MEAN_MOTION_DOT": -5.26e-06,
    "MEAN_MOTION_DDOT": 0.0,
    "TLE_LINE1": "1 47907U 21021AZ  25314.80437159 -.00000526  00000+0 -16462-4 0  9992",
    "TLE_LINE2": "2 47907  53.0555  95.3159 0000780 145.9948 214.1091 15.06397806258096",
    "COMMENT": "Grouped by shell and plane from TLE"
  },
  {
    "OBJECT_NAME": "STARLINK-2371",
    "OBJECT_ID": "21021BD",
    "EPOCH": "2025-11-11T03:28:39.074880",
    "MEAN_MOTION": 15.06409652,
    "ECCENTRICITY": 0.0001363,
    "INCLINATION": 53.0548,
    "RA_OF_ASC_NODE": 99.0287,
    "ARG_OF_PERICENTER": 82.4925,
    "MEAN_ANOMALY": 277.6218,
    "EPHEMERIS_TYPE": 0,
    "CLASSIFICATION_TYPE": "U",
    "NORAD_CAT_ID": 47911,
    "ELEMENT_SET_NO": 999,
    "REV_AT_EPOCH": 25795,
    "BSTAR": 0.00017063999999999998,
    "MEAN_MOTION_DOT": 2.262e-05,
    "MEAN_MOTION_DDOT": 0.0,
    "TLE_LINE1": "1 47911U 21021BD  25315.14489670  .00002262  00000+0  17064-3 0  9995",
    "TLE_LINE2": "2 47911  53.0548  99.0287 0001363  82.4925 277.6218 15.06409652257956",
    "COMMENT": "Grouped by shell and plane from TLE"
  },
  {
    "OBJECT_NAME": "STARLINK-2405",
    "OBJECT_ID": "21021BM",
    "EPOCH": "2025-11-11T02:49:27.725664",
    "MEAN_MOTION": 15.0640437,
    "ECCENTRICITY": 8.82e-05,
    "INCLINATION": 53.0545,
    "RA_OF_ASC_NODE": 93.9099,
    "ARG_OF_PERICENTER": 91.5148,
    "MEAN_ANOMALY": 268.5942,
    "EPHEMERIS_TYPE": 0,
    "CLASSIFICATION_TYPE": "U",
    "NORAD_CAT_ID": 47919,
    "ELEMENT_SET_NO": 999,
    "REV_AT_EPOCH": 25816,
    "BSTAR": 0.00014371999999999999,
    "MEAN_MOTION_DOT": 1.86e-05,
    "MEAN_MOTION_DDOT": 0.0,
    "TLE_LINE1": "1 47919U 21021BM  25315.11768201  .00001860  00000+0  14372-3 0  9992",
    "TLE_LINE2": "2 47919  53.0545  93.9099 0000882  91.5148 268.5942 15.06404370258167",
    "COMMENT": "Grouped by shell and plane from TLE"
  },
  {
    "OBJECT_NAME": "STARLINK-3181",
    "OBJECT_ID": "22010F",
    "EPOCH": "2025-11-10T19:15:56.217600",
    "MEAN_MOTION": 15.08856485,
    "ECCENTRICITY": 0.0001489,
    "INCLINATION": 53.2168,
    "RA_OF_ASC_NODE": 92.8232,
    "ARG_OF_PERICENTER": 55.314,
    "MEAN_ANOMALY": 304.7992,
    "EPHEMERIS_TYPE": 0,
    "CLASSIFICATION_TYPE": "U",
    "NORAD_CAT_ID": 51461,
    "ELEMENT_SET_NO": 999,
    "REV_AT_EPOCH": 20887,
    "BSTAR": 0.00073271,
    "MEAN_MOTION_DOT": 0.00011398,
    "MEAN_MOTION_DDOT": 0.0,
    "TLE_LINE1": "1 51461U 22010F   25314.80273400  .00011398  00000+0  73271-3 0  9995",
    "TLE_LINE2": "2 51461  53.2168  92.8232 0001489  55.3140 304.7992 15.08856485208879",
    "COMMENT": "Grouped by shell and plane from TLE"
  },
  {
    "OBJECT_NAME": "STARLINK-3166",
    "OBJECT_ID": "22010G",
    "EPOCH": "2025-11-10T16:01:13.788480",
    "MEAN_MOTION": 15.08838042,
    "ECCENTRICITY": 0.0001287,
    "INCLINATION": 53.2143,
    "RA_OF_ASC_NODE": 93.4409,
    "ARG_OF_PERICENTER": 91.6981,
    "MEAN_ANOMALY": 268.4159,
    "EPHEMERIS_TYPE": 0,
    "CLASSIFICATION_TYPE": "U",
    "NORAD_CAT_ID": 51462,
    "ELEMENT_SET_NO": 999,
    "REV_AT_EPOCH": 20885,
    "BSTAR": 0.0,
    "MEAN_MOTION_DOT": -2.437e-05,
    "MEAN_MOTION_DDOT": 0.0,
    "TLE_LINE1": "1 51462U 22010G   25314.66752070 -.00002437  00000+0 -13509-3 0  9999",
    "TLE_LINE2": "2 51462  53.2143  93.4409 0001287  91.6981 268.4159 15.08838042208856",
    "COMMENT": "Grouped by shell and plane from TLE"
  },
  {
    "OBJECT_NAME": "STARLINK-3419",
    "OBJECT_ID": "22010H",
    "EPOCH": "2025-11-10T18:33:32.519520",
    "MEAN_MOTION": 15.08829169,
    "ECCENTRICITY": 0.0001357,
    "INCLINATION": 53.2179,
    "RA_OF_ASC_NODE": 92.9572,
    "ARG_OF_PERICENTER": 101.9176,
    "MEAN_ANOMALY": 258.1968,
    "EPHEMERIS_TYPE": 0,
    "CLASSIFICATION_TYPE": "U",
    "NORAD_CAT_ID": 51463,
    "ELEMENT_SET_NO": 999,
    "REV_AT_EPOCH": 20856,
    "BSTAR": 0.00010076,
    "MEAN_MOTION_DOT": 1.316e-05,
    "MEAN_MOTION_DDOT": 0.0,
    "TLE_LINE1": "1 51463U 22010H   25314.77329305  .00001316  00000+0  10076-3 0  9992",
    "TLE_LINE2": "2 51463  53.2179  92.9572 0001357 101.9176 258.1968 15.08829169208562",
    "COMMENT": "Grouped by shell and plane from TLE"
  },
  {
    "OBJECT_NAME": "STARLINK-3189",
    "OBJECT_ID": "22010J",
    "EPOCH": "2025-11-10T15:49:15.012192",
    "MEAN_MOTION": 15.08846979,
    "ECCENTRICITY": 0.0001269,
    "INCLINATION": 53.2146,
    "RA_OF_ASC_NODE": 93.4674,
    "ARG_OF_PERICENTER": 86.5224,
    "MEAN_ANOMALY": 273.5913,
    "EPHEMERIS_TYPE": 0,
    "CLASSIFICATION_TYPE": "U",
    "NORAD_CAT_ID": 51464,
    "ELEMENT_SET_NO": 999,
    "REV_AT_EPOCH": 20935,
    "BSTAR": 0.00022832,
    "MEAN_MOTION_DOT": 3.348e-05,
    "MEAN_MOTION_DDOT": 0.0,
    "TLE_LINE1": "1 51464U 22010J   25314.65920153  .00003348  00000+0  22832-3 0  9998",
    "TLE_LINE2": "2 51464  53.2146  93.4674 0001269  86.5224 273.5913 15.08846979209357",
    "COMMENT": "Grouped by shell and plane from TLE"
  }
]